DMSP 5D-3 F16 (USA 172) 
1 28054U 03048A   26176.87744507  .00000012  00000+0  29718-4 0  9991
2 28054  98.9888 200.7632 0008069 118.3868   5.0840 14.14483587170717
METEOSAT-9 (MSG-2)      
1 28912U 05049B   26176.81915795  .00000125  00000+0  00000+0 0  9993
2 28912   9.3807  54.0841 0001994 355.8110 204.6730  1.00277120  7086
DMSP 5D-3 F17 (USA 191) 
1 29522U 06050A   26176.86718297  .00000024  00000+0  34894-4 0  9998
2 29522  98.7378 183.2596 0010824  36.7373 323.4541 14.14993879 13654
FENGYUN 3A              
1 32958U 08026A   26176.71680390  .00000064  00000+0  50621-4 0  9996
2 32958  98.6884 117.3905 0009859 101.6563 258.5720 14.19572796936616
GOES 14                 
1 35491U 09033A   26176.83729715 -.00000311  00000+0  00000+0 0  9995
2 35491   1.7128  82.9491 0002215  18.1237 251.1129  1.00108653  6672
DMSP 5D-3 F18 (USA 210) 
1 35951U 09057A   26176.83912935  .00000240  00000+0  14746-3 0  9996
2 35951  98.9040 157.5895 0010156 222.2999 137.7392 14.14901476860815
EWS-G2 (GOES 15)        
1 36411U 10008A   26176.75140560  .00000030  00000+0  00000+0 0  9995
2 36411   1.3010  82.7360 0005265  42.3804 122.8439  1.00267964 59724
COMS 1                  
1 36744U 10032A   26176.81785795  .00000060  00000+0  00000+0 0  9996
2 36744   4.8271  75.2572 0011887  13.2199 158.9248  0.99166008 51176
FENGYUN 3B              
1 37214U 10059A   26176.87003771 -.00000177  00000+0 -68351-4 0  9990
2 37214  98.9621 222.9216 0022390 159.3660 309.1409 14.14841527808654
SUOMI NPP               
1 37849U 11061A   26176.86935250  .00000060  00000+0  49536-4 0  9996
2 37849  98.7954 117.6861 0001039 342.1805  17.9334 14.19519086759676
METEOSAT-10 (MSG-3)     
1 38552U 12035B   26176.31114292 -.00000001  00000+0  00000+0 0  9999
2 38552   4.6909  60.9870 0001722   7.2984 317.3776  1.00268265 50936
METOP-B                 
1 38771U 12049A   26176.84772200  .00000082  00000+0  57299-4 0  9999
2 38771  98.6500 228.1740 0001692 354.5102   5.6057 14.21441465714498
INSAT-3D                
1 39216U 13038B   26176.83582382 -.00000330  00000+0  00000+0 0  9992
2 39216   1.9486  82.4432 0001124 359.9959 261.9459  1.00272276 47162
FENGYUN 3C              
1 39260U 13052A   26176.87799463  .00000090  00000+0  67003-4 0  9994
2 39260  98.4982 150.3538 0014735   3.3332 356.7939 14.15756961659794
METEOR-M 2              
1 40069U 14037A   26176.87396059 -.00000162  00000+0 -54893-4 0  9996
2 40069  98.5113 152.3044 0006364  22.6753 337.4705 14.21462780620553
HIMAWARI-8              
1 40267U 14060A   26176.83799050 -.00000265  00000+0  00000+0 0  9995
2 40267   0.0156 307.2557 0001531 150.3987 258.6406  1.00270784 42843
FENGYUN 2G              
1 40367U 14090A   26176.75853483 -.00000296  00000+0  00000+0 0  9995
2 40367   5.6611  72.7168 0003599 151.3751  62.5277  1.00269333 42081
METEOSAT-11 (MSG-4)     
1 40732U 15034A   26176.81205126  .00000070  00000+0  00000+0 0  9991
2 40732   3.2222  71.0555 0002267 347.3848 157.2924  1.00265767  7300
ELEKTRO-L 2             
1 41105U 15074A   26175.45272256 -.00000115  00000+0  00000+0 0  9998
2 41105   6.7126  70.4366 0000705 278.7793  71.8306  1.00271170 38573
SENTINEL-3A             
1 41335U 16011A   26176.84254146  .00000087  00000+0  53796-4 0  9999
2 41335  98.6246 244.1018 0001432  97.2129 262.9215 14.26734833539299
INSAT-3DR               
1 41752U 16054A   26176.82481711 -.00000066  00000+0  00000+0 0  9990
2 41752   0.1279  86.2391 0010089 187.1565  11.4656  1.00272358 35908
HIMAWARI-9              
1 41836U 16064A   26176.83807715  .00000000  00000+0  00000+0 0  9998
2 41836   0.0246  33.3577 0001216  81.1631 241.9238  1.00269145 35290
GOES 16                 
1 41866U 16071A   26176.52367214 -.00000081  00000+0  00000+0 0  9990
2 41866   0.3627  85.5312 0000531   2.7428 269.2126  1.00272037 35188
FENGYUN 4A              
1 41882U 16077A   26176.83469715 -.00000349  00000+0  00000+0 0  9994
2 41882   2.3453  80.1974 0008256 152.1721 105.6980  1.00264910 35012
CYGFM05                 
1 41884U 16078A   26176.38733020  .00024617  00000+0  32926-3 0  9999
2 41884  34.9555 206.2760 0007999 226.8874 133.1182 15.56990968530030
CYGFM04                 
1 41885U 16078B   26176.33224667  .00033633  00000+0  37205-3 0  9990
2 41885  34.9306 173.9175 0007289 263.3110  96.6786 15.61922993530274
CYGFM02                 
1 41886U 16078C   26176.31716924  .00041033  00000+0  40163-3 0  9991
2 41886  34.9385 168.3136 0008267 265.2681  94.7102 15.64984174530440
CYGFM01                 
1 41887U 16078D   26176.43652675  .00026106  00000+0  34012-3 0  9997
2 41887  34.9386 206.9400 0007735 221.6360 138.3776 15.57683122529995
CYGFM08                 
1 41888U 16078E   26176.44573674  .00031715  00000+0  37195-3 0  9997
2 41888  34.9414 186.2381 0009125 250.2663 109.7078 15.60404106530261
CYGFM07                 
1 41890U 16078G   26176.34040010  .00031809  00000+0  37193-3 0  9994
2 41890  34.9428 175.2742 0007667 263.1104  96.8749 15.60497342530276
CYGFM03                 
1 41891U 16078H   26176.37541706  .00031781  00000+0  37173-3 0  9993
2 41891  34.9384 176.9757 0007324 252.1288 107.8639 15.60491965530257
